STARLINK-5510           
1 55647U 23021V   26068.74813769  .00000113  00000+0  17236-4 0  9999
2 55647  70.0015 184.1673 0003265 270.0124  90.0661 14.98333238168803
LEMUR-2-BALTO           
1 63395U 25052BH  26068.69493058  .00007621  00000+0  63456-3 0  9998
2 63395  97.6978 323.5166 0002279 359.2852   0.8367 14.98934076 53850
